NORAD_CAT_ID,OBJECT_NAME,OBJECT_TYPE,EPOCH,MEAN_MOTION,ECCENTRICITY,INCLINATION,RA_OF_ASC_NODE,ARG_OF_PERICENTER,MEAN_ANOMALY,BSTAR,MEAN_MOTION_DOT,MEAN_MOTION_DDOT,TLE_LINE0,TLE_LINE1,TLE_LINE2,SEMIMAJOR_AXIS,PERIOD,APOGEE,PERIGEE,DECAYED
52271.0,STARLINK-3788,PAYLOAD,2022-08-25 14:00:01,15.08814959,0.0001932,53.2167,149.6033,59.2566,150.558,0.0021805999999999,0.00034563,0.0,0 STARLINK-3788,1 52271U 22041L   22237.58334491  .00034563  00000-0  21806-2 0  9999,2 52271  53.2167 149.6033 0001932  59.2566 150.5580 15.08814959  1305,6917.956999999999,95.439,541.158,538.485,0.0
52271.0,STARLINK-3788,PAYLOAD,2022-08-25 22:00:00,15.08850702,0.000205,53.2169,148.1081,59.5907,161.7997,-0.0015696,-0.00025189,0.0,0 STARLINK-3788,1 52271U 22041L   22237.91667824 -.00025189  00000-0 -15696-2 0  9991,2 52271  53.2169 148.1081 0002050  59.5907 161.7997 15.08850702  1300,6917.848000000001,95.437,541.131,538.295,0.0
52271.0,STARLINK-3788,PAYLOAD,2022-08-26 06:00:00,15.08828635,0.0002139,53.2167,146.6126,54.9853,178.0033,0.0018624,0.00029468,0.0,0 STARLINK-3788,1 52271U 22041L   22238.25001157  .00029468  00000-0  18624-2 0  9996,2 52271  53.2167 146.6126 0002139  54.9853 178.0033 15.08828635 20626,6917.915,95.438,541.26,538.3,0.0
52271.0,STARLINK-3788,PAYLOAD,2022-08-26 14:00:01,15.08822617,0.0002035,53.2169,145.1144,60.4176,184.2352,0.0025092,0.00039853,0.0,0 STARLINK-3788,1 52271U 22041L   22238.58335648  .00039853  00000-0  25092-2 0  9993,2 52271  53.2169 145.1144 0002035  60.4176 184.2352 15.08822617  1308,6917.934,95.439,541.206,538.391,0.0
52271.0,STARLINK-3788,PAYLOAD,2022-08-26 22:00:00,15.08861637,0.0002156,53.217,143.6192,60.0493,196.1315,-0.0014349999999999,-0.00023068,0.0,0 STARLINK-3788,1 52271U 22041L   22238.91667824 -.00023068  00000-0 -14350-2 0  9992,2 52271  53.2170 143.6192 0002156  60.0493 196.1315 15.08861637 20721,6917.814,95.436,541.1709999999998,538.188,0.0
52271.0,STARLINK-3788,PAYLOAD,2022-08-27 14:00:01,15.08813558,0.0002026999999999,53.2172,140.6254,60.3682,219.0444,0.0024784,0.00039348,0.0,0 STARLINK-3788,1 52271U 22041L   22239.58334491  .00039348  00000-0  24784-2 0  9995,2 52271  53.2172 140.6254 0002027  60.3682 219.0444 15.08813558  1309,6917.9609999999975,95.439,541.2280000000002,538.424,0.0
52271.0,STARLINK-3788,PAYLOAD,2022-08-27 22:00:00,15.08850696,0.0002153,53.2173,139.1302,59.1269,231.8659,-0.0013003,-0.0002093,0.0,0 STARLINK-3788,1 52271U 22041L   22239.91667824 -.00020930  00000-0 -13003-2 0  9992,2 52271  53.2173 139.1302 0002153  59.1269 231.8659 15.08850696 20871,6917.848000000001,95.437,541.202,538.2230000000002,0.0
52271.0,STARLINK-3788,PAYLOAD,2022-08-28 14:00:01,15.08811051,0.0002012,53.2174,136.1363,61.0417,253.1707,0.0024599,0.00039048,0.0,0 STARLINK-3788,1 52271U 22041L   22240.58334491  .00039048  00000-0  24599-2 0  9998,2 52271  53.2174 136.1363 0002012  61.0417 253.1707 15.08811051 20971,6917.969,95.439,541.226,538.442,0.0
52271.0,STARLINK-3788,PAYLOAD,2022-08-28 22:00:00,15.08844831,0.0002105,53.2175,134.6412,58.3686,267.4188,-0.0012295,-0.00019806,0.0,0 STARLINK-3788,1 52271U 22041L   22240.91667824 -.00019806  00000-0 -12295-2 0  9996,2 52271  53.2175 134.6412 0002105  58.3686 267.4188 15.08844831  1309,6917.866,95.437,541.187,538.274,0.0
52271.0,STARLINK-3788,PAYLOAD,2022-08-29 06:00:02,15.08852951,0.0002083,53.2171,133.1451,54.4621,282.9749,-0.003137,-0.00049887,0.0,0 STARLINK-3788,1 52271U 22041L   22241.25002315 -.00049887  00000-0 -31370-2 0  9999,2 52271  53.2171 133.1451 0002083  54.4621 282.9749 15.08852951 21076,6917.840999999999,95.437,541.1469999999998,538.265,0.0
52271.0,STARLINK-3788,PAYLOAD,2022-08-29 14:00:01,15.08789013,0.0001908,53.2173,131.6472,61.0885,287.8846,0.0032829,0.00052274,0.0,0 STARLINK-3788,1 52271U 22041L   22241.58334491  .00052274  00000-0  32829-2 0  9990,2 52271  53.2173 131.6472 0001908  61.0885 287.8846 15.08789013  1309,6918.036,95.441,541.221,538.581,0.0
52271.0,STARLINK-3788,PAYLOAD,2022-08-29 22:00:00,15.08831718,0.0002034,53.2173,130.1522,58.191,302.3395,-0.0013003,-0.00020919,0.0,0 STARLINK-3788,1 52271U 22041L   22241.91667824 -.00020919  00000-0 -13003-2 0  9992,2 52271  53.2173 130.1522 0002034  58.1910 302.3395 15.08831718  1319,6917.906,95.438,541.178,538.364,0.0
52271.0,STARLINK-3788,PAYLOAD,2022-08-30 14:00:01,15.08808139,0.0001908,53.2169,127.1581,63.4572,320.2385,0.0032758,0.00052187,0.0,0 STARLINK-3788,1 52271U 22041L   22242.58334491  .00052187  00000-0  32758-2 0  9995,2 52271  53.2169 127.1581 0001908  63.4572 320.2385 15.08808139  1305,6917.978,95.44,541.163,538.523,0.0
52271.0,STARLINK-3788,PAYLOAD,2022-08-30 22:00:00,15.08848753,0.0002044,53.2168,125.6632,60.1421,335.1339,-0.0012307,-0.00019827,0.0,0 STARLINK-3788,1 52271U 22041L   22242.91667824 -.00019827  00000-0 -12307-2 0  9995,2 52271  53.2168 125.6632 0002044  60.1421 335.1339 15.08848753  1303,6917.854,95.437,541.133,538.305,0.0
52271.0,STARLINK-3788,PAYLOAD,2022-08-31 14:00:01,15.08838608,0.0001882,53.2163,122.6688,65.4415,353.0368,0.00039602,6.02e-05,0.0,0 STARLINK-3788,1 52271U 22041L   22243.58334491  .00006020  00000-0  39602-3 0  9997,2 52271  53.2163 122.6688 0001882  65.4415 353.0368 15.08838608  1305,6917.885,95.438,541.052,538.448,0.0
52271.0,STARLINK-3788,PAYLOAD,2022-08-31 22:00:00,15.08831843,0.0001953,53.2162,121.174,60.6772,9.4014,-0.001161,-0.00018714,0.0,0 STARLINK-3788,1 52271U 22041L   22243.91667824 -.00018714  00000-0 -11610-2 0  9996,2 52271  53.2162 121.1740 0001953  60.6772   9.4014 15.08831843  1303,6917.905,95.438,541.121,538.419,0.0
52271.0,STARLINK-3788,PAYLOAD,2022-09-01 14:00:01,15.08815857,0.0001865,53.2159,118.1795,66.5741,26.7325,0.0026194,0.00041619,0.0,0 STARLINK-3788,1 52271U 22041L   22244.58335648  .00041619  00000-0  26194-2 0  9997,2 52271  53.2159 118.1795 0001865  66.5741  26.7325 15.08815857 21584,6917.954000000002,95.439,541.109,538.529,0.0
52271.0,STARLINK-3788,PAYLOAD,2022-09-01 22:00:00,15.08843672,0.0002008999999999,53.2159,116.6849,62.0777,42.752,-0.00088671,-0.00014374,0.0,0 STARLINK-3788,1 52271U 22041L   22244.91667824 -.00014374  00000-0 -88671-3 0  9997,2 52271  53.2159 116.6849 0002009  62.0777  42.7520 15.08843672  1307,6917.869000000002,95.437,541.124,538.344,0.0
52271.0,STARLINK-3788,PAYLOAD,2022-09-02 06:00:00,15.08856059,0.0001976,53.2157,115.1881,60.493,55.9258,-0.0013184,-0.00021219,0.0,0 STARLINK-3788,1 52271U 22041L   22245.25001157 -.00021219  00000-0 -13184-2 0  9998,2 52271  53.2157 115.1881 0001976  60.4930  55.9258 15.08856059 21680,6917.831,95.437,541.063,538.3290000000002,0.0
52271.0,STARLINK-3788,PAYLOAD,2022-09-02 14:00:01,15.08844686,0.0001895,53.2159,113.6903,67.1297,60.8941,-0.00051031,-8.402e-05,0.0,0 STARLINK-3788,1 52271U 22041L   22245.58334491 -.00008402  00000-0 -51031-3 0  9997,2 52271  53.2159 113.6903 0001895  67.1297  60.8941 15.08844686  1304,6917.866,95.437,541.0419999999998,538.42,0.0
52271.0,STARLINK-3788,PAYLOAD,2022-09-02 22:00:01,15.08826869,0.0001968,53.216,112.1956,61.1355,78.5529,-0.00058531,-9.588e-05,0.0,0 STARLINK-3788,1 52271U 22041L   22245.91668981 -.00009588  00000-0 -58531-3 0  9996,2 52271  53.2160 112.1956 0001968  61.1355  78.5529 15.08826869  1309,6917.920999999999,95.438,541.1469999999998,538.424,0.0
52271.0,STARLINK-3788,PAYLOAD,2022-09-03 06:00:00,15.08844867,0.0001934,53.2161,110.6987,60.0288,91.1685,-0.0015674,-0.00025151,0.0,0 STARLINK-3788,1 52271U 22041L   22246.25001157 -.00025151  00000-0 -15674-2 0  9994,2 52271  53.2161 110.6987 0001934  60.0288  91.1685 15.08844867 21835,6917.866,95.437,541.068,538.393,0.0
52271.0,STARLINK-3788,PAYLOAD,2022-09-03 14:00:01,15.08825848,0.0001902,53.2165,109.2011,66.7505,96.0386,0.0020039999999999,0.00031738,0.0,0 STARLINK-3788,1 52271U 22041L   22246.58334491  .00031738  00000-0  20040-2 0  9999,2 52271  53.2165 109.2011 0001902  66.7505  96.0386 15.08825848  1301,6917.924,95.438,541.104,538.4730000000002,0.0
52271.0,STARLINK-3788,PAYLOAD,2022-09-03 22:00:00,15.08844004,0.0002039,53.2166,107.7066,61.0701,113.318,4.2772e-05,3.93e-06,0.0,0 STARLINK-3788,1 52271U 22041L   22246.91667824  .00000393  00000-0  42772-4 0  9996,2 52271  53.2166 107.7066 0002039  61.0701 113.3180 15.08844004 21934,6917.868,95.437,541.144,538.323,0.0
52271.0,STARLINK-3788,PAYLOAD,2022-09-04 14:00:01,15.08850403,0.0001876999999999,53.2172,104.712,66.2864,131.3853,-0.00021153,-3.654e-05,0.0,0 STARLINK-3788,1 52271U 22041L   22247.58335648 -.00003654  00000-0 -21153-3 0  9990,2 52271  53.2172 104.7120 0001877  66.2864 131.3853 15.08850403  1301,6917.849,95.437,541.012,538.415,0.0
52271.0,STARLINK-3788,PAYLOAD,2022-09-04 20:00:01,15.08860688,0.0001921999999999,53.2172,103.5913,60.3763,55.9089,-0.001918,-0.00030701,0.0,0 STARLINK-3788,1 52271U 22041L   22247.83334491 -.00030701  00000-0 -19180-2 0  9992,2 52271  53.2172 103.5913 0001922  60.3763  55.9089 15.08860688  1300,6917.816999999999,95.436,541.012,538.3530000000002,0.0
52271.0,STARLINK-3788,PAYLOAD,2022-09-05 06:00:00,15.08851029,0.0001806,53.2174,101.7204,58.2997,162.4962,-0.0014897,-0.00023926,0.0,0 STARLINK-3788,1 52271U 22041L   22248.25001157 -.00023926  00000-0 -14897-2 0  9990,2 52271  53.2174 101.7204 0001806  58.2997 162.4962 15.08851029 22138,6917.847,95.437,540.961,538.462,0.0
52271.0,STARLINK-3788,PAYLOAD,2022-09-05 14:00:01,15.0884215,0.0001739,53.2178,100.2232,64.6432,167.7474,0.0015686,0.00024766,0.0,0 STARLINK-3788,1 52271U 22041L   22248.58334491  .00024766  00000-0  15686-2 0  9994,2 52271  53.2178 100.2232 0001739  64.6432 167.7474 15.08842150  1304,6917.874,95.437,540.942,538.536,0.0
52271.0,STARLINK-3788,PAYLOAD,2022-09-05 22:00:00,15.08836749,0.0001825,53.2178,98.7286,56.4653,187.5317,-0.00099237,-0.00016046,0.0,0 STARLINK-3788,1 52271U 22041L   22248.91667824 -.00016046  00000-0 -99237-3 0  9999,2 52271  53.2178  98.7286 0001825  56.4653 187.5317 15.08836749  1307,6917.89,95.438,541.018,538.493,0.0
